STARLINK-36335          
1 68015U 26040A   26071.29190969  .00890969  38519-3  17122-2 0  9998
2 68015  97.2746  19.7003 0003542 330.3555  29.7522 16.00566489  1750
STARLINK-36923          
1 68016U 26040B   26071.29067497  .00130579  91342-5  25518-3 0  9996
2 68016  97.2749  19.7020 0001809 339.4553  20.6653 16.00257949  1758
STARLINK-36568          
1 68017U 26040C   26071.29010790  .00216876  21550-4  42019-3 0  9994
2 68017  97.2747  19.7026 0001560 335.7741  24.3464 16.00375816  1750
STARLINK-36930          
1 68018U 26040D   26071.29128720  .00158716  12448-4  31170-3 0  9998
2 68018  97.2741  19.7012 0001777 333.5914  26.5274 16.00155344  1753
STARLINK-36921          
1 68019U 26040E   26071.28907169 -.00307816  36844-4 -58943-3 0  9992
2 68019  97.2753  19.7048 0000513  81.5585 278.5752 16.00489703  1756
STARLINK-36928          
1 68020U 26040F   26071.28965563  .00058851  36506-5  11418-3 0  9998
2 68020  97.2760  19.7035 0001557  12.5176 347.6141 16.00499512  1750
STARLINK-36858          
1 68021U 26040G   26071.15917757  .01290387  10476-2  15906-2 0  9990
2 68021  97.2742  19.5747 0002157 188.6392 171.4854 16.08172425  1732
STARLINK-36916          
1 68022U 26040H   26071.28791975  .00544393  13428-3  10136-2 0  9996
2 68022  97.2769  19.7067 0002399 348.5819  11.5406 16.01065364  1753
STARLINK-36871          
1 68023U 26040J   26071.28733114  .00663584  20472-3  12252-2 0  9990
2 68023  97.2755  19.7062 0002957 347.9818  12.1390 16.01223653  1752
STARLINK-36891          
1 68024U 26040K   26071.28659499  .00114536  75974-5  21401-3 0  9998
2 68024  97.2749  19.7074 0001743 355.7144   4.4119 16.01056961  1759
STARLINK-36378          
1 68025U 26040L   26071.09783209 -.00155174  11394-4 -27850-3 0  9999
2 68025  97.2757  19.5049 0002607  52.7628 307.3889 16.01565121  1729
STARLINK-36884          
1 68026U 26040M   26071.28594260  .00010106  23003-5  19997-4 0  9996
2 68026  97.2757  19.7084 0000899   7.1844 352.9447 16.01139104  1753
STARLINK-36940          
1 68027U 26040N   26071.27410642 -.00053138  33484-5 -90049-4 0  9992
2 68027  97.2767  19.7243 0002209   6.3246 353.8061 16.02399331  1759
STARLINK-36253          
1 68028U 26040P   26071.25001157 -.01642215  00000+0 -92198-2 0  9996
2 68028  97.2784  19.5564 0001565 113.9289 146.4942 15.82195878  2931
STARLINK-36944          
1 68029U 26040Q   26071.28476866 -.00183724  14960-4 -33603-3 0  9999
2 68029  97.2750  19.7097 0001544  39.9081 320.2312 16.01255686  1750
STARLINK-36942          
1 68030U 26040R   26071.28413917 -.00187297  15466-4 -34089-3 0  9999
2 68030  97.2758  19.7104 0001984  42.5429 317.6004 16.01340375  1751
STARLINK-36913          
1 68031U 26040S   26071.28351101 -.00190898  15988-4 -34562-3 0  9992
2 68031  97.2763  19.7114 0001682  50.0885 310.0541 16.01434174  1758
STARLINK-36935          
1 68032U 26040T   26071.27922395  .00649728  19955-3  11153-2 0  9997
2 68032  97.2766  19.7177 0003237 359.0281   1.0992 16.02478820  1755
STARLINK-36947          
1 68033U 26040U   26071.28298793 -.00152277  11057-4 -27373-3 0  9995
2 68033  97.2758  19.7119 0001892  41.9065 318.2359 16.01539655  1758
STARLINK-36939          
1 68034U 26040V   26071.28063739  .00595159  16499-3  10342-2 0  9995
2 68034  97.2774  19.7152 0003087 344.7707  15.3479 16.02261458  1751
STARLINK-36943          
1 68035U 26040W   26071.27707087  .00660849  20735-3  11263-2 0  9996
2 68035  97.2780  19.7212 0003121 351.4938   8.6289 16.02604253  2889
STARLINK-36906          
1 68036U 26040X   26071.28119538  .00778858  29476-3  13480-2 0  9990
2 68036  97.2770  19.7136 0005081  14.9038 345.2391 16.02345584  1751
STARLINK-36388          
1 68037U 26040Y   26071.27987674  .00723617  25144-3  12471-2 0  9994
2 68037  97.2776  19.7164 0003385 334.6882  25.4231 16.02422219  1754
STARLINK-36895          
1 68038U 26040Z   26071.28176959  .00762274  28029-3  13360-2 0  9997
2 68038  97.2757  19.7129 0003349 342.2513  17.8650 16.02140745  1752
STARLINK-36373          
1 68039U 26040AA  26071.28245827  .00637716  19028-3  11261-2 0  9998
2 68039  97.2764  19.7127 0003306 358.1222   2.0045 16.01990253  1755
STARLINK-36711          
1 68040U 26041A   26071.25001157 -.01577026  00000+0 -81182-2 0  9999
2 68040  53.1591  49.3196 0000744  86.2585 252.1696 15.83337482  2787
STARLINK-36825          
1 68041U 26041B   26071.25001157 -.01578946  00000+0 -80089-2 0  9997
2 68041  53.1589  49.3029 0000861  80.7006 265.4232 15.83647852  2785
STARLINK-36925          
1 68042U 26041C   26071.25001157 -.01572763  00000+0 -80405-2 0  9991
2 68042  53.1591  49.3112 0000613  83.2285 259.1001 15.83475061  2789
STARLINK-36902          
1 68043U 26041D   26071.25001157 -.01569843  00000+0 -78875-2 0  9995
2 68043  53.1592  49.2958 0000806  97.2255 252.6020 15.83828684  2786
STARLINK-36966          
1 68044U 26041E   26071.25001157 -.01564483  00000+0 -77491-2 0  9994
2 68044  53.1590  49.2800 0000893  86.3171 271.1106 15.84113936  2782
STARLINK-36864          
1 68045U 26041F   26071.25001157 -.01571235  00000+0 -78532-2 0  9995
2 68045  53.1590  49.2878 0000706  90.6258 263.1230 15.83941268  2780
STARLINK-36321          
1 68046U 26041G   26071.25001157 -.01567586  00000+0 -76612-2 0  9997
2 68046  53.1590  49.2645 0000973  94.4334 270.5386 15.84395890  2785
STARLINK-36181          
1 68047U 26041H   26071.25001157 -.01567534  00000+0 -77127-2 0  9993
2 68047  53.1590  49.2724 0000727  91.7338 269.4627 15.84259324  2668
STARLINK-36318          
1 68048U 26041J   26071.25001157 -.01562512  00000+0 -75766-2 0  9992
2 68048  53.1590  49.2570 0000616  83.7712 284.8613 15.84552566  2785
STARLINK-36885          
1 68049U 26041K   26071.25001157 -.01569210  00000+0 -75256-2 0  9999
2 68049  53.1588  49.2411 0000887  83.5504 292.7030 15.84789153  2789
STARLINK-36945          
1 68050U 26041L   26071.25001157 -.01567487  00000+0 -75615-2 0  9994
2 68050  53.1589  49.2491 0000832  92.7516 279.7195 15.84666193  2780
STARLINK-35911          
1 68051U 26041M   26071.25001157 -.01574319  00000+0 -75155-2 0  9996
2 68051  53.1590  49.2337 0000629  86.9218 293.1789 15.84896080  2745
STARLINK-35808          
1 68052U 26041N   26071.25001157 -.01573194  00000+0 -74592-2 0  9991
2 68052  53.1585  49.2250 0000706  83.9546 299.8284 15.85032892  2748
STARLINK-36919          
1 68053U 26041P   26071.25001157 -.01567978  00000+0 -73911-2 0  9999
2 68053  53.1587  49.2176 0000633  80.1138 307.4460 15.85143924  2788
STARLINK-36924          
1 68054U 26041Q   26071.25001157 -.01524874  00000+0 -70750-2 0  9996
2 68054  53.1583  49.2029 0000913 115.3969 279.4164 15.85386221  2784
STARLINK-35998          
1 68055U 26041R   26071.25001157 -.01572889  00000+0 -73613-2 0  9997
2 68055  53.1586  49.2099 0000751  86.9636 304.1694 15.85298269  2743
STARLINK-36845          
1 68056U 26041S   26071.25001157 -.01573448  00000+0 -72674-2 0  9996
2 68056  53.1580  49.1953 0000773  80.7232 317.6689 15.85568527  2788
STARLINK-36954          
1 68057U 26041T   26071.25001157 -.01574764  00000+0 -72282-2 0  9994
2 68057  53.1582  49.1877 0000695  86.1380 315.8804 15.85699168  2788
STARLINK-36899          
1 68058U 26041U   26071.25001157 -.01565531  00000+0 -71267-2 0  9999
2 68058  53.1583  49.1809 0000595  83.4365 322.0185 15.85851534  2786
STARLINK-36917          
1 68059U 26041V   26071.25001157 -.01568684  00000+0 -71061-2 0  9994
2 68059  53.1579  49.1733 0000618  92.0994 317.1247 15.85956875  2786
STARLINK-36959          
1 68060U 26041W   26071.25001157 -.01564206  00000+0 -70313-2 0  9991
2 68060  53.1580  49.1652 0000734  77.1620 335.5126 15.86104126  2784
STARLINK-36915          
1 68061U 26041X   26071.25001157 -.01568227  00000+0 -70079-2 0  9998
2 68061  53.1580  49.1580 0000779  77.1350 339.1267 15.86230648  2789
STARLINK-36952          
1 68062U 26041Y   26071.25001157 -.01573658  00000+0 -69951-2 0  9990
2 68062  53.1582  49.1509 0000753  88.2518 331.6840 15.86347790  2785
STARLINK-37000          
1 68063U 26041Z   26071.25001157 -.01571744  00000+0 -69492-2 0  9995
2 68063  53.1581  49.1427 0000783  92.5562 331.0803 15.86452496  2787
STARLINK-36996          
1 68064U 26041AA  26071.25001157 -.01574523  00000+0 -69275-2 0  9993
2 68064  53.1580  49.1353 0000742  84.0073 343.3503 15.86556767  2782
STARLINK-36836          
1 68065U 26041AB  26071.25001157 -.01578166  00000+0 -68610-2 0  9993
2 68065  53.1580  49.1202 0000650  89.6379 344.8380 15.86805428  2784
STARLINK-36976          
1 68066U 26041AC  26071.25001157 -.01582728  00000+0 -68447-2 0  9991
2 68066  53.1577  49.1126 0000696  84.2846 353.8348 15.86918981  2789
STARLINK-36929          
1 68067U 26041AD  26071.25001157 -.01580570  00000+0 -69191-2 0  9992
2 68067  53.1577  49.1274 0000694  86.8838 344.1522 15.86669808  2789
STARLINK-36990          
1 68068U 26041AE  26071.25001157 -.01588767  00000+0 -68425-2 0  9998
2 68068  53.1577  49.1046 0000762  84.9026 357.0192 15.87012012  2787
STARLINK-36766          
1 68069U 26042A   26071.25001157 -.01450078  61628-3 -37615-2 0  9997
2 68069  53.1598 182.1777 0000787  82.1498 307.8561 15.94459645  2452
STARLINK-36823          
1 68070U 26042B   26071.25001157 -.01458110  62331-3 -37576-2 0  9992
2 68070  53.1593 182.1725 0000783  90.1986 302.2894 15.94583908  2457
STARLINK-36970          
1 68071U 26042C   26071.25001157 -.01458831  62534-3 -37126-2 0  9999
2 68071  53.1600 182.1626 0001020  70.5180 326.8140 15.94817886  2462
STARLINK-36972          
1 68072U 26042D   26071.25001157 -.01451281  61870-3 -37166-2 0  9998
2 68072  53.1599 182.1681 0000792  82.3661 312.2860 15.94699962  2462
STARLINK-37074          
1 68073U 26042E   26071.25001157 -.01455466  62347-3 -36800-2 0  9992
2 68073  53.1600 182.1577 0000799  81.9518 317.8444 15.94938790  2467
